1 25160U 98007D   20006.97604631 -.00000129  00000-0  24738-7 0  9996
2 25160 107.9608 270.9020 0063106 199.9625 171.2058 14.21532404136251
1 26034U 99070C   20007.46294869  .00001515  00000-0  98607-4 0  9993
2 26034  98.2433 288.1677 0011224 265.4449  94.5496 15.09672703 86291
1 43777U 18099V   20007.15038724  .00007294  00000-0  63861-3 0  9993
2 43777  97.7423  81.5410 0012002  17.6071 342.5565 14.96946014 59679
